NORAD_CAT_ID,OBJECT_NAME,OBJECT_TYPE,EPOCH,MEAN_MOTION,ECCENTRICITY,INCLINATION,RA_OF_ASC_NODE,ARG_OF_PERICENTER,MEAN_ANOMALY,BSTAR,MEAN_MOTION_DOT,MEAN_MOTION_DDOT,TLE_LINE0,TLE_LINE1,TLE_LINE2,SEMIMAJOR_AXIS,PERIOD,APOGEE,PERIGEE,DECAYED
52467.0,STARLINK-3873,PAYLOAD,2023-01-11 21:20:14,15.08808693,0.0001725,53.2159,194.2475,77.7967,282.3218,0.0008042,0.00012523,0.0,0 STARLINK-3873,1 52467U 22049S   23011.88906011  .00012523  00000-0  80420-3 0  9991,2 52467  53.2159 194.2475 0001725  77.7967 282.3218 15.08808693 38219,6917.976,95.44,541.034,538.648,0.0
52467.0,STARLINK-3873,PAYLOAD,2023-01-12 05:17:09,15.08850078,0.0001546,53.2159,192.7605,86.9873,273.1296,0.0001756,2.509e-05,0.0,0 STARLINK-3873,1 52467U 22049S   23012.22024740  .00002509  00000-0  17560-3 0  9998,2 52467  53.2159 192.7605 0001546  86.9873 273.1296 15.08850078 38427,6917.85,95.437,540.784,538.645,0.0
52467.0,STARLINK-3873,PAYLOAD,2023-01-12 18:00:13,15.08854306,0.0001554,53.2158,190.3812,87.9918,272.1252,0.00017394,2.482e-05,0.0,0 STARLINK-3873,1 52467U 22049S   23012.75016150  .00002482  00000-0  17394-3 0  9997,2 52467  53.2158 190.3812 0001554  87.9918 272.1252 15.08854306 38340,6917.837,95.437,540.7769999999998,538.627,0.0
52467.0,STARLINK-3873,PAYLOAD,2023-01-13 05:07:55,15.08853647,0.0001511,53.2161,188.2995,87.8543,272.2622,9.8557e-05,1.281e-05,0.0,0 STARLINK-3873,1 52467U 22049S   23013.21384060  .00001281  00000-0  98557-4 0  9994,2 52467  53.2161 188.2995 0001511  87.8543 272.2622 15.08853647 38415,6917.839,95.437,540.749,538.658,0.0
52467.0,STARLINK-3873,PAYLOAD,2023-01-13 17:51:00,15.08849366,0.0001524,53.2162,185.9199,97.795,262.3215,1.9365e-05,2e-07,0.0,0 STARLINK-3873,1 52467U 22049S   23013.74376075  .00000020  00000-0  19365-4 0  9999,2 52467  53.2162 185.9199 0001524  97.7950 262.3215 15.08849366 38659,6917.852,95.437,540.771,538.6619999999999,0.0
52467.0,STARLINK-3873,PAYLOAD,2023-01-13 21:01:46,15.0885217,0.0001656,53.2164,185.3236,103.4317,256.6859,1.1577e-05,-1.04e-06,0.0,0 STARLINK-3873,1 52467U 22049S   23013.87623814 -.00000104  00000-0  11577-4 0  9990,2 52467  53.2164 185.3236 0001656 103.4317 256.6859 15.08852170 38517,6917.843000000001,95.437,540.854,538.563,0.0
52467.0,STARLINK-3873,PAYLOAD,2023-01-14 20:52:33,15.08845768,0.000158,53.2156,180.8656,88.1895,271.9278,4.7719e-05,4.72e-06,0.0,0 STARLINK-3873,1 52467U 22049S   23014.86983667  .00000472  00000-0  47719-4 0  9999,2 52467  53.2156 180.8656 0001580  88.1895 271.9278 15.08845768 38824,6917.863,95.437,540.821,538.635,0.0
52467.0,STARLINK-3873,PAYLOAD,2023-01-15 17:32:34,15.0884046,0.0001274,53.2161,177.0007,88.17399999999999,271.9398,7.7066e-05,9.39e-06,0.0,0 STARLINK-3873,1 52467U 22049S   23015.73095969  .00000939  00000-0  77066-4 0  9991,2 52467  53.2161 177.0007 0001274  88.1740 271.9398 15.08840460 38958,6917.879,95.438,540.625,538.863,0.0
52467.0,STARLINK-3873,PAYLOAD,2023-01-16 06:15:40,15.08833446,0.0001250999999999,53.2163,174.6224,82.666,277.4474,4.3123e-05,3.98e-06,0.0,0 STARLINK-3873,1 52467U 22049S   23016.26088621  .00000398  00000-0  43123-4 0  9993,2 52467  53.2163 174.6224 0001251  82.6660 277.4474 15.08833446 39031,6917.9,95.438,540.631,538.9,0.0
52467.0,STARLINK-3873,PAYLOAD,2023-01-16 11:01:49,15.08839722,0.0001359,53.2163,173.7306,84.5376,275.5771,3.4236e-05,2.57e-06,0.0,0 STARLINK-3873,1 52467U 22049S   23016.45960440  .00000257  00000-0  34236-4 0  9991,2 52467  53.2163 173.7306 0001359  84.5376 275.5771 15.08839722 38903,6917.880999999999,95.438,540.686,538.806,0.0
52467.0,STARLINK-3873,PAYLOAD,2023-01-16 17:23:23,15.08830513,0.0001281,53.2158,172.5408,88.2889,271.825,-5.6652e-05,-1.189e-05,0.0,0 STARLINK-3873,1 52467U 22049S   23016.72457241 -.00001189  00000-0 -56652-4 0  9994,2 52467  53.2158 172.5408 0001281  88.2889 271.8250 15.08830513 38945,6917.909000000001,95.438,540.661,538.888,0.0
52467.0,STARLINK-3873,PAYLOAD,2023-01-17 09:17:14,15.088303699999996,0.0001139999999999,53.2168,169.5662,86.5733,273.539,6.5478e-05,7.54e-06,0.0,0 STARLINK-3873,1 52467U 22049S   23017.38697343  .00000754  00000-0  65478-4 0  9997,2 52467  53.2168 169.5662 0001140  86.5733 273.5390 15.08830370 39202,6917.91,95.438,540.563,538.986,0.0
52467.0,STARLINK-3873,PAYLOAD,2023-01-17 18:49:32,15.088468099999998,0.0001155999999999,53.2165,167.7827,86.7338,273.3787,0.0001029,1.35e-05,0.0,0 STARLINK-3873,1 52467U 22049S   23017.78440369  .00001350  00000-0  10290-3 0  9999,2 52467  53.2165 167.7827 0001156  86.7338 273.3787 15.08846810 39262,6917.86,95.437,540.524,538.925,0.0
52467.0,STARLINK-3873,PAYLOAD,2023-01-18 09:08:01,15.08837559,0.0001331999999999,53.2162,165.1067,90.9889,269.1256,8.537e-05,1.071e-05,0.0,0 STARLINK-3873,1 52467U 22049S   23018.38057218  .00001071  00000-0  85370-4 0  9995,2 52467  53.2162 165.1067 0001332  90.9889 269.1256 15.08837559 39355,6917.888000000001,95.438,540.674,538.831,0.0
52467.0,STARLINK-3873,PAYLOAD,2023-01-18 12:18:47,15.08839556,0.0001333,53.2164,164.5123,91.7848,268.3296,9.9704e-05,1.299e-05,0.0,0 STARLINK-3873,1 52467U 22049S   23018.51305099  .00001299  00000-0  99704-4 0  9991,2 52467  53.2164 164.5123 0001333  91.7848 268.3296 15.08839556 39217,6917.882,95.438,540.669,538.825,0.0
52467.0,STARLINK-3873,PAYLOAD,2023-01-18 15:29:33,15.08844746,0.0001344,53.2169,163.9165,101.2768,258.8376,0.00017327,2.471e-05,0.0,0 STARLINK-3873,1 52467U 22049S   23018.64552600  .00002471  00000-0  17327-3 0  9990,2 52467  53.2169 163.9165 0001344 101.2768 258.8376 15.08844746 39390,6917.866,95.437,540.661,538.8009999999999,0.0
52467.0,STARLINK-3873,PAYLOAD,2023-01-19 08:58:48,15.08841301,0.0001602,53.218,160.6493,75.2721,284.8448,1.5433e-05,-4.2e-07,0.0,0 STARLINK-3873,1 52467U 22049S   23019.37417130 -.00000042  00000-0  15433-4 0  9999,2 52467  53.2180 160.6493 0001602  75.2721 284.8448 15.08841301 39503,6917.876,95.437,540.85,538.633,0.0
52467.0,STARLINK-3873,PAYLOAD,2023-01-19 12:09:34,15.08835963,0.0001349,53.2153,160.0524,75.4376,284.6766,-6.1041e-06,-3.85e-06,0.0,0 STARLINK-3873,1 52467U 22049S   23019.50665347 -.00000385  00000-0 -61041-5 0  9997,2 52467  53.2153 160.0524 0001349  75.4376 284.6766 15.08835963 39360,6917.893,95.438,540.691,538.825,0.0
52467.0,STARLINK-3873,PAYLOAD,2023-01-20 10:24:57,15.08851656,0.0001147,53.2171,155.8882,89.5337,270.5786,6.819399999999999e-05,7.98e-06,0.0,0 STARLINK-3873,1 52467U 22049S   23020.43400379  .00000798  00000-0  68194-4 0  9994,2 52467  53.2171 155.8882 0001147  89.5337 270.5786 15.08851656 39664,6917.845,95.437,540.503,538.9159999999999,0.0
52467.0,STARLINK-3873,PAYLOAD,2023-01-21 08:40:22,15.08838,0.0001384,53.2164,151.7271,70.1166,289.9976,0.0001103,1.468e-05,0.0,0 STARLINK-3873,1 52467U 22049S   23021.36137125  .00001468  00000-0  11030-3 0  9994,2 52467  53.2164 151.7271 0001384  70.1166 289.9976 15.08838000 39801,6917.887,95.438,540.7090000000001,538.794,0.0
52467.0,STARLINK-3873,PAYLOAD,2023-01-22 14:52:41,15.08846527,0.0001167999999999,53.217,146.0751,91.8334,268.2792,8.876399999999999e-05,1.125e-05,0.0,0 STARLINK-3873,1 52467U 22049S   23022.61992407  .00001125  00000-0  88764-4 0  9994,2 52467  53.2170 146.0751 0001168  91.8334 268.2792 15.08846527 39994,6917.86,95.437,540.533,538.9169999999999,0.0
52467.0,STARLINK-3873,PAYLOAD,2023-01-23 14:43:28,15.08845003,0.0001231999999999,53.2167,141.6163,102.3785,257.7345,0.00017851,2.555e-05,0.0,0 STARLINK-3873,1 52467U 22049S   23023.61352787  .00002555  00000-0  17851-3 0  9992,2 52467  53.2167 141.6163 0001232 102.3785 257.7345 15.08845003 40142,6917.865,95.437,540.582,538.878,0.0
52467.0,STARLINK-3873,PAYLOAD,2023-01-24 06:37:20,15.08839712,0.0001315,53.2157,138.6422,100.2813,259.8327,7.6617e-05,9.32e-06,0.0,0 STARLINK-3873,1 52467U 22049S   23024.27593003  .00000932  00000-0  76617-4 0  9996,2 52467  53.2157 138.6422 0001315 100.2813 259.8327 15.08839712 40240,6917.880999999999,95.438,540.656,538.837,0.0
52467.0,STARLINK-3873,PAYLOAD,2023-01-25 12:49:40,15.08829472,0.0001308,53.217,132.9907,137.8812,222.2281,-8.6476e-05,-1.663e-05,0.0,0 STARLINK-3873,1 52467U 22049S   23025.53449641 -.00001663  00000-0 -86476-4 0  9992,2 52467  53.2170 132.9907 0001308 137.8812 222.2281 15.08829472 40275,6917.9130000000005,95.438,540.682,538.873,0.0
52467.0,STARLINK-3873,PAYLOAD,2023-01-25 14:25:03,15.08835416,0.0001262999999999,53.216,132.695,119.3926,240.7192,3.3194e-05,2.4e-06,0.0,0 STARLINK-3873,1 52467U 22049S   23025.60073540  .00000240  00000-0  33194-4 0  9998,2 52467  53.2160 132.6950 0001263 119.3926 240.7192 15.08835416 40440,6917.894,95.438,540.633,538.886,0.0
52467.0,STARLINK-3873,PAYLOAD,2023-01-26 14:15:50,15.0884762,0.0001109,53.2163,128.2357,86.7775,273.3344,0.00026985,4.01e-05,0.0,0 STARLINK-3873,1 52467U 22049S   23026.59433373  .00004010  00000-0  26985-3 0  9999,2 52467  53.2163 128.2357 0001109  86.7775 273.3344 15.08847620 40433,6917.857,95.437,540.489,538.955,0.0
52467.0,STARLINK-3873,PAYLOAD,2023-01-26 23:48:09,15.088505800000002,0.0001176,53.2159,126.4526,93.4076,266.7051,0.00034213,5.163e-05,0.0,0 STARLINK-3873,1 52467U 22049S   23026.99177163  .00005163  00000-0  34213-3 0  9998,2 52467  53.2159 126.4526 0001176  93.4076 266.7051 15.08850580 40653,6917.848000000001,95.437,540.5269999999999,538.9,0.0
52467.0,STARLINK-3873,PAYLOAD,2023-01-27 14:06:36,15.08859747,0.0001183,53.2157,123.7746,93.9756,266.1371,0.00038364,5.826e-05,0.0,0 STARLINK-3873,1 52467U 22049S   23027.58792534  .00005826  00000-0  38364-3 0  9996,2 52467  53.2157 123.7746 0001183  93.9756 266.1371 15.08859747 40588,6917.82,95.436,540.503,538.867,0.0
52467.0,STARLINK-3873,PAYLOAD,2023-01-28 06:00:29,15.08827409,0.0001222,53.2155,120.8006,80.8408,279.2722,-0.00024349,-4.16e-05,0.0,0 STARLINK-3873,1 52467U 22049S   23028.25033747 -.00004160  00000-0 -24349-3 0  9995,2 52467  53.2155 120.8006 0001222  80.8408 279.2722 15.08827409 40840,6917.919,95.438,540.629,538.939,0.0
